0 THORAD AGENA D DEB
1 05149U 70025JS  13283.09302319  .00001408  00000-0  79002-3 0  6190
2 05149 099.6322 235.3184 0066400 084.8404 334.9109 14.11303707205588
0 THORAD AGENA D DEB
1 05149U 70025JS  13285.92426082  .00001661  00000-0  92715-3 0  6218
2 05149 099.6327 238.3541 0066546 077.1830 319.4366 14.11310412205980
0 THORAD AGENA D DEB
1 05149U 70025JS  13287.42921929  .00001877  00000-0  10439-2 0  6227
2 05149 099.6330 239.9679 0066591 073.1239 045.6234 14.11314886206197
0 THORAD AGENA D DEB
1 05149U 70025JS  13288.83436446  .00002127  00000-0  11792-2 0  6231
2 05149 099.6334 241.4745 0066590 069.3228 344.7315 14.11322398206399
0 THORAD AGENA D DEB
1 05149U 70025JS  13290.34249128  .00001940  00000-0  10780-2 0  6248
2 05149 099.6338 243.0916 0066607 065.2476 087.0821 14.11330694206601
0 THORAD AGENA D DEB
1 05149U 70025JS  13291.46897997  .00001812  00000-0  10086-2 0  6253
2 05149 099.6339 244.2996 0066642 062.2176 050.4568 14.11335103206765
0 THORAD AGENA D DEB
1 05149U 70025JS  13292.87680519  .00002127  00000-0  11791-2 0  6264
2 05149 099.6341 245.8095 0066672 058.4212 003.2678 14.11339454206969
0 THORAD AGENA D DEB
1 05149U 70025JS  13294.44904836  .00002424  00000-0  13394-2 0  6272
2 05149 099.6340 247.4950 0066725 054.0801 071.5821 14.11346205207186
0 THORAD AGENA D DEB
1 05149U 70025JS  13295.85284718  .00002682  00000-0  14792-2 0  6288
2 05149 099.6339 249.0006 0066687 050.2994 003.9952 14.11351873207385
